IRIDIUM 57 [-]          
1 25273U 98019B   24111.62698985  .00001004  00000+0  34488-3 0  9992
2 25273  86.3944 322.2493 0002145  88.2124 271.9318 14.35158855364376
IRIDIUM 63 [-]          
1 25286U 98021B   24111.46352105  .00001435  00000+0  49069-3 0  9991
2 25286  86.3955 259.1867 0002007  97.1187 263.0238 14.35692627363170
IRIDIUM 69 [-]          
1 25319U 98026A   24111.49280105  .00001847  00000+0  58188-3 0  9995
2 25319  86.3931 273.7464 0002376  29.5801 330.5532 14.39901534362212
IRIDIUM 71 [-]          
1 25320U 98026B   24111.50550223  .00001713  00000+0  53564-3 0  9995
2 25320  86.3934 268.5099 0003827  66.2245 293.9355 14.40224252362734
IRIDIUM 73 [-]          
1 25344U 98032C   24111.83668438  .00002137  00000+0  54192-3 0  9991
2 25344  86.4457 225.8781 0001993  79.6194 280.5235 14.50437778369611
IRIDIUM 82 [-]          
1 25467U 98051A   24111.59731703  .00021223  00000+0  11025-2 0  9991
2 25467  86.3741 313.0792 0133741  72.4419 289.1377 15.08434479359803
IRIDIUM 2 [-]           
1 25527U 98066A   24111.67047580  .00150826  00000+0  13489-2 0  9994
2 25527  85.5086 340.5599 0004148 134.1471 226.0139 15.67893680398363
